#cP2014  4  5  0  0  0.00000000      96 ORBIT IGb08 HLM  IGS
## 1786 518400.00000000   900.00000000 56752 0.0000000000000
+   32   G01G02G03G04G05G06G07G08G09G10G11G12G13G14G15G16G17
+        G18G19G20G21G22G23G24G25G26G27G28G29G30G31G32  0  0
+          0  0  0  0  0  0  0  0  0  0  0  0  0  0  0  0  0
+          0  0  0  0  0  0  0  0  0  0  0  0  0  0  0  0  0
+          0  0  0  0  0  0  0  0  0  0  0  0  0  0  0  0  0
++         2  2  2  2  2  0  2  2  2  2  2  2  2  2  2  2  2
++         2  2  2  2  2  2  2  2  2  2  2  2  0  2  2  0  0
++         0  0  0  0  0  0  0  0  0  0  0  0  0  0  0  0  0
++         0  0  0  0  0  0  0  0  0  0  0  0  0  0  0  0  0
++         0  0  0  0  0  0  0  0  0  0  0  0  0  0  0  0  0
%c G  cc GPS ccc cccc cccc cccc cccc ccccc ccccc ccccc ccccc
%c cc cc ccc ccc cccc cccc cccc cccc ccccc ccccc ccccc ccccc
%f  1.2500000  1.025000000  0.00000000000  0.000000000000000
%f  0.0000000  0.000000000  0.00000000000  0.000000000000000
%i    0    0    0    0      0      0      0      0         0
%i    0    0    0    0      0      0      0      0         0
/* FINAL ORBIT COMBINATION FROM WEIGHTED AVERAGE OF:        
/* cod emr esa gfz grg jpl mit ngs sio                      
/* REFERENCED TO IGS TIME (IGST) AND TO WEIGHTED MEAN POLE: 
/* PCV:IGS08_1787 OL/AL:FES2004  NONE     Y  ORB:CMB CLK:CMB
*  2014  4  5 12 45  0.00000000
PG01 -13276.610398  22871.570895  -1532.708422      7.287623  7  4  2 107       
PG02  18696.873548  -7217.234060 -16894.342126    487.973606  8  9  4 120       
PG03 -15541.975692   4376.374955  20571.693648    347.818180  6  6  3 108       
PG04  13715.225071   7950.978626 -21620.984204      6.428618  5  6  7 118       
PG05  25799.668821  -3261.361527   5768.995615   -380.609084  9  4  4 102       
PG06 -24206.543366  -7162.734718  -8777.591662 999999.999999
PG07  -2568.711310  21890.940168  14643.342244    331.897933  8  4  4  88       
PG08   5248.014746  15198.663898  21147.077285     12.702642  5  3  5 121       
PG09   7851.369260  13610.974559  20849.944450    317.825943  6  2  5 114       
PG10  22289.575755   9600.024936 -11609.419581   -120.622939  4  7  4  91       
PG11 -12412.157576  21627.533190   8353.068843   -478.101932  8  5  6 118       
PG12  14264.306671 -11583.727507 -19149.763221    196.661454  9  6  6 105       
PG13   3412.360346  24750.972957  -8911.377116     12.896099  7  4  7 104       
PG14 -14428.044669 -21220.082026  -6928.871394    184.328086  7  3  7 123       
PG15  10300.768737 -12747.253289  20799.092264   -172.192122  6  5  5  85       
PG16 -26027.687328   1472.488636   5970.350017   -224.614783  6  5  5  78       
PG17  15530.891347  20117.580649  -7846.614666    -82.461775  9  7  7 117       
PG18  -6735.353783 -15809.309427  20760.828606    311.389413  8  4  2 100       
PG19 -11842.352464  10060.798996  21351.074752   -449.172221  8  4  4 110       
PG20 -12583.363797  14294.656559 -18672.870803    176.721385  7  7  3 108       
PG21  -1281.537995 -21082.976657  16449.706844   -353.545447  8  5  4 135       
PG22 -19279.868564 -11554.715267  14478.738089    224.621036  3  4  2  93       
PG23  -4691.182922  18757.990202 -17924.347322     -9.840399  7  6  3 113       
PG24  15856.670842 -20936.266082   3594.073635    -26.169141  6  5  5 105       
PG25    499.960708 -14901.659509 -22044.356217     20.886161  7  6  6 134       
PG26  15606.431290    805.282843  20869.077952    117.799411  5  5  4 104       
PG27 -17086.987149  -2135.261137  20233.677033    -20.210439  4  6  6 105       
PG28  15685.845155  13241.885557  17532.883139    344.970994  4  2  2 114       
PG29  -3288.884122 -24194.882422 -10469.084159    523.306957  9  4  7 117       
PG30   4905.009780  16821.735405  19947.892502 999999.999999
PG31 -15338.185929  -2952.442038 -21377.827251    334.109357  6  6  5  58       
PG32 -22778.813540   5715.273406 -11800.424567   -455.460725  8  7  6 103       
*  2014  4  5 13  0  0.00000000
PG01 -13509.856482  22743.546244   1330.810823      7.289070  7  4  2 118       
PG02  17862.863097  -5282.102842 -18461.264217    487.975354  8  8  4 131       
PG03 -16974.072643   2417.785168  19783.131622    347.822646  6  5  3 118       
PG04  12494.017486  10028.318912 -21473.815550      6.428435  5  6  6 140       
PG05  26304.329293  -2986.215292   3007.739953   -380.607110  9  5  3  99       
PG06 -23082.771472  -7297.817691 -11344.286187 999999.999999
PG07  -3541.710018  23105.256275  12359.651277    331.901961  8  3  4 105       
PG08   3769.973181  17004.025829  19997.055987     12.701541  5  3  4 126       
PG09   6543.248888  15668.797418  19842.489631    317.828279  6  1  5 115       
PG10  20886.647557   9785.720728 -13868.613650   -120.624341  4  7  4 103       
PG11 -12579.116882  20389.288948  10756.581134   -478.105037  8  6  6 123       
PG12  16346.061847 -11382.589938 -17512.857837    196.663104 10  6  6 119       
PG13   2776.133168  23772.816170 -11479.934640     12.892804  7  4  7 107       
PG14 -14517.835224 -21903.626111  -4156.143084    184.325228  6  3  7  93       
PG15  11634.564182 -10715.172503  21261.847658   -172.194079  7  5  5  78       
PG16 -26537.178038   1293.526000   3144.720239   -224.613316  6  5  5 112       
PG17  15693.897091  20896.543025  -5119.029354    -82.464453  8  7  7 119       
PG18  -4410.868851 -15868.328030  21314.080282    311.391582  8  4  2 100       
PG19 -12914.492336   7807.659105  21707.145018   -449.174218  8  4  3 119       
PG20 -14620.526121  14219.833704 -17163.737520    176.725000  7  7  3 118       
PG21   -222.625933 -22429.062390  14486.559694   -353.546567  8  5  4 132       
PG22 -17542.576166 -11788.035999  16385.926357    224.623942  4  3  1  88       
PG23  -5887.572137  16943.740665 -19351.622026     -9.843373  7  6  3 113       
PG24  15803.173616 -20305.581650   6371.267582    -26.170777  6  5  5 104       
PG25   2993.683908 -14878.054260 -21849.660105     20.887135  7  7  6 137       
PG26  16552.725838   3080.348719  19963.033891    117.789447  5  5  3 102       
PG27 -18112.301776  -4133.232222  18999.223349    -20.210004  4  6  6 114       
PG28  13702.811581  13189.394239  19201.431334    344.973571  4  2  1 123       
PG29  -2511.537190 -23086.236184 -12892.519007    523.309614  9  4  7 130       
PG30   3544.298121  18567.797118  18643.375082 999999.999999
PG31 -14033.702366  -5081.697497 -21837.701045    334.109281  6  6  5  95       
PG32 -23982.973011   5313.067699  -9309.857567   -455.453766  8  7  6  88       
*  2014  4  5 13 15  0.00000000
PG01 -13601.440970  22339.523463   4171.232480      7.290550  7  5  2 123       
PG02  17052.240027  -3167.065659 -19698.248363    487.977481  7  8  3 126       
PG03 -18421.034474    615.290561  18639.098952    347.827607  6  5  2 122       
PG04  11391.713761  12133.155489 -20966.619973      6.429126  4  6  6 127       
PG05  26508.703060  -2719.531104    195.194827   -380.605146  9  5  3 117       
PG06 -21690.874447  -7506.335374 -13719.544322 999999.999999
PG07  -4320.878241  24130.626744   9860.398691    331.905662  8  2  4 103       
PG08   2477.671238  18770.254761  18501.338939     12.700893  5  2  4 122       
PG09   5411.511065  17670.477230  18475.933586    317.830868  6     5 117       
PG10  19257.270051  10050.743204 -15898.394669   -120.625292  4  7  4  99       
PG11 -12755.350335  18897.900446  12968.567577   -478.108130  8  6  6 128       
PG12  18234.314516 -11294.405975 -15573.320530    196.665441 10  6  6 121       
PG13   1961.361947  22581.954705 -13850.595287     12.889340  7  4  7 107       
PG14 -14492.224673 -22301.624643  -1312.217137    184.322068  5  3  7 107       
PG15  13080.910040  -8726.031057  21356.260725   -172.195845  7  5  5  84       
PG16 -26734.918201   1144.793067    266.121422   -224.611962  6  6  6 109       
PG17  15740.002948  21394.403317  -2303.999423    -82.467494  6  7  7 127       
PG18  -2047.783457 -16041.576847  21515.676430    311.393461  8  5  3 103       
PG19 -14109.751778   5600.714953  21684.505341   -449.176182  8  4  3 114       
PG20 -16476.303369  14219.679147 -15362.422047    176.728667  7  6  4 124       
PG21    672.327959 -23619.649635  12278.077771   -353.548787  8  5  4 131       
PG22 -15621.371048 -12113.547111  18016.865720    224.626280  5  2  1 100       
PG23  -7248.070350  15072.702380 -20439.303963     -9.846382  7  6  3 116       
PG24  15644.923520 -19396.336651   9038.149604    -26.172152  6  5  4 111       
PG25   5443.255686 -14988.272343 -21280.822650     20.888103  7  7  6 124       
PG26  17558.104802   5184.630076  18695.656237    117.779270  5  4  3  92       
PG27 -19154.118860  -5942.018737  17438.293637    -20.209558  3  6  6 125       
PG28  11555.101251  13249.435032  20556.335935    344.976165  3  2    121       
PG29  -1543.926025 -21793.844444 -15094.097128    523.311773  9  4  7 121       
PG30   2362.399886  20240.576675  17017.675787 999999.999999
PG31 -12831.165837  -7308.930702 -21917.164191    334.109657  6  6  5 108       
PG32 -24911.561823   4979.275697  -6653.705838   -455.446921  8  6  6 119       
EOF
